[
  {
    "COMMENT": "GENERATED VIA SPACETRACK.ORG API",
    "ORIGINATOR": "18 SPCS",
    "NORAD_CAT_ID": "54754",
    "OBJECT_NAME": "SWOT",
    "OBJECT_TYPE": "PAYLOAD",
    "CLASSIFICATION_TYPE": "U",
    "INTLDES": "22173A",
    "EPOCH": "2023-03-28 13:56:44",
    "EPOCH_MICROSECONDS": "519712",
    "MEAN_MOTION": "14.09851892",
    "ECCENTRICITY": "0.0000998",
    "INCLINATION": "77.6067",
    "RA_OF_ASC_NODE": "185.9416",
    "ARG_OF_PERICENTER": "217.5484",
    "MEAN_ANOMALY": "142.5603",
    "EPHEMERIS_TYPE": "0",
    "ELEMENT_SET_NO": "999",
    "REV_AT_EPOCH": "1438",
    "BSTAR": "0.00019171",
    "MEAN_MOTION_DOT": "0.00000334",
    "MEAN_MOTION_DDOT": "0",
    "FILE": "3873565",
    "TLE_LINE0": "0 SWOT",
    "TLE_LINE1": "1 54754U 22173A   23087.58107083  .00000334  00000-0  19171-3 0  9994",
    "TLE_LINE2": "2 54754  77.6067 185.9416 0000998 217.5484 142.5603 14.09851892 14385",
    "OBJECT_ID": "2022-173A",
    "OBJECT_NUMBER": "54754",
    "SEMIMAJOR_AXIS": "7238.016",
    "PERIOD": "102.138",
    "APOGEE": "860.603",
    "PERIGEE": "859.158",
    "DECAYED": "0"
  },
  {
    "COMMENT": "GENERATED VIA SPACETRACK.ORG API",
    "ORIGINATOR": "18 SPCS",
    "NORAD_CAT_ID": "54754",
    "OBJECT_NAME": "SWOT",
    "OBJECT_TYPE": "PAYLOAD",
    "CLASSIFICATION_TYPE": "U",
    "INTLDES": "22173A",
    "EPOCH": "2023-03-28 17:21:07",
    "EPOCH_MICROSECONDS": "73856",
    "MEAN_MOTION": "14.09852058",
    "ECCENTRICITY": "0.0000994",
    "INCLINATION": "77.6067",
    "RA_OF_ASC_NODE": "185.7469",
    "ARG_OF_PERICENTER": "217.4939",
    "MEAN_ANOMALY": "142.6148",
    "EPHEMERIS_TYPE": "0",
    "ELEMENT_SET_NO": "999",
    "REV_AT_EPOCH": "1440",
    "BSTAR": "0.0001972",
    "MEAN_MOTION_DOT": "0.00000344",
    "MEAN_MOTION_DDOT": "0",
    "FILE": "3873921",
    "TLE_LINE0": "0 SWOT",
    "TLE_LINE1": "1 54754U 22173A   23087.72299854  .00000344  00000-0  19720-3 0  9999",
    "TLE_LINE2": "2 54754  77.6067 185.7469 0000994 217.4939 142.6148 14.09852058 14404",
    "OBJECT_ID": "2022-173A",
    "OBJECT_NUMBER": "54754",
    "SEMIMAJOR_AXIS": "7238.015",
    "PERIOD": "102.138",
    "APOGEE": "860.599",
    "PERIGEE": "859.161",
    "DECAYED": "0"
  },
  {
    "COMMENT": "GENERATED VIA SPACETRACK.ORG API",
    "ORIGINATOR": "18 SPCS",
    "NORAD_CAT_ID": "54754",
    "OBJECT_NAME": "SWOT",
    "OBJECT_TYPE": "PAYLOAD",
    "CLASSIFICATION_TYPE": "U",
    "INTLDES": "22173A",
    "EPOCH": "2023-03-29 10:22:59",
    "EPOCH_MICROSECONDS": "853216",
    "MEAN_MOTION": "14.09852585",
    "ECCENTRICITY": "0.0000982",
    "INCLINATION": "77.6067",
    "RA_OF_ASC_NODE": "184.7733",
    "ARG_OF_PERICENTER": "216.3283",
    "MEAN_ANOMALY": "143.7807",
    "EPHEMERIS_TYPE": "0",
    "ELEMENT_SET_NO": "999",
    "REV_AT_EPOCH": "1450",
    "BSTAR": "0.00019481",
    "MEAN_MOTION_DOT": "0.0000034",
    "MEAN_MOTION_DDOT": "0",
    "FILE": "3874432",
    "TLE_LINE0": "0 SWOT",
    "TLE_LINE1": "1 54754U 22173A   23088.43263719  .00000340  00000-0  19481-3 0  9999",
    "TLE_LINE2": "2 54754  77.6067 184.7733 0000982 216.3283 143.7807 14.09852585 14504",
    "OBJECT_ID": "2022-173A",
    "OBJECT_NUMBER": "54754",
    "SEMIMAJOR_AXIS": "7238.013",
    "PERIOD": "102.138",
    "APOGEE": "860.589",
    "PERIGEE": "859.167",
    "DECAYED": "0"
  },
  {
    "COMMENT": "GENERATED VIA SPACETRACK.ORG API",
    "ORIGINATOR": "18 SPCS",
    "NORAD_CAT_ID": "54754",
    "OBJECT_NAME": "SWOT",
    "OBJECT_TYPE": "PAYLOAD",
    "CLASSIFICATION_TYPE": "U",
    "INTLDES": "22173A",
    "EPOCH": "2023-03-29 10:22:59",
    "EPOCH_MICROSECONDS": "853216",
    "MEAN_MOTION": "14.09852585",
    "ECCENTRICITY": "0.0000982",
    "INCLINATION": "77.6067",
    "RA_OF_ASC_NODE": "184.7733",
    "ARG_OF_PERICENTER": "216.3283",
    "MEAN_ANOMALY": "143.7807",
    "EPHEMERIS_TYPE": "0",
    "ELEMENT_SET_NO": "999",
    "REV_AT_EPOCH": "1450",
    "BSTAR": "0.00019481",
    "MEAN_MOTION_DOT": "0.0000034",
    "MEAN_MOTION_DDOT": "0",
    "FILE": "3874492",
    "TLE_LINE0": "0 SWOT",
    "TLE_LINE1": "1 54754U 22173A   23088.43263719  .00000340  00000-0  19481-3 0  9999",
    "TLE_LINE2": "2 54754  77.6067 184.7733 0000982 216.3283 143.7807 14.09852585 14504",
    "OBJECT_ID": "2022-173A",
    "OBJECT_NUMBER": "54754",
    "SEMIMAJOR_AXIS": "7238.013",
    "PERIOD": "102.138",
    "APOGEE": "860.589",
    "PERIGEE": "859.167",
    "DECAYED": "0"
  },
  {
    "COMMENT": "GENERATED VIA SPACETRACK.ORG API",
    "ORIGINATOR": "18 SPCS",
    "NORAD_CAT_ID": "54754",
    "OBJECT_NAME": "SWOT",
    "OBJECT_TYPE": "PAYLOAD",
    "CLASSIFICATION_TYPE": "U",
    "INTLDES": "22173A",
    "EPOCH": "2023-03-29 17:11:44",
    "EPOCH_MICROSECONDS": "957184",
    "MEAN_MOTION": "14.09852753",
    "ECCENTRICITY": "0.0000986",
    "INCLINATION": "77.6067",
    "RA_OF_ASC_NODE": "184.3838",
    "ARG_OF_PERICENTER": "216.1911",
    "MEAN_ANOMALY": "143.9179",
    "EPHEMERIS_TYPE": "0",
    "ELEMENT_SET_NO": "999",
    "REV_AT_EPOCH": "1454",
    "BSTAR": "0.00019164",
    "MEAN_MOTION_DOT": "0.00000334",
    "MEAN_MOTION_DDOT": "0",
    "FILE": "3874790",
    "TLE_LINE0": "0 SWOT",
    "TLE_LINE1": "1 54754U 22173A   23088.71649256  .00000334  00000-0  19164-3 0  9995",
    "TLE_LINE2": "2 54754  77.6067 184.3838 0000986 216.1911 143.9179 14.09852753 14541",
    "OBJECT_ID": "2022-173A",
    "OBJECT_NUMBER": "54754",
    "SEMIMAJOR_AXIS": "7238.013",
    "PERIOD": "102.138",
    "APOGEE": "860.591",
    "PERIGEE": "859.164",
    "DECAYED": "0"
  },
  {
    "COMMENT": "GENERATED VIA SPACETRACK.ORG API",
    "ORIGINATOR": "18 SPCS",
    "NORAD_CAT_ID": "54754",
    "OBJECT_NAME": "SWOT",
    "OBJECT_TYPE": "PAYLOAD",
    "CLASSIFICATION_TYPE": "U",
    "INTLDES": "22173A",
    "EPOCH": "2023-03-30 11:55:48",
    "EPOCH_MICROSECONDS": "982080",
    "MEAN_MOTION": "14.09853265",
    "ECCENTRICITY": "0.0000968",
    "INCLINATION": "77.6067",
    "RA_OF_ASC_NODE": "183.313",
    "ARG_OF_PERICENTER": "215.5087",
    "MEAN_ANOMALY": "144.6005",
    "EPHEMERIS_TYPE": "0",
    "ELEMENT_SET_NO": "999",
    "REV_AT_EPOCH": "1465",
    "BSTAR": "0.00018879",
    "MEAN_MOTION_DOT": "0.00000329",
    "MEAN_MOTION_DDOT": "0",
    "FILE": "3875364",
    "TLE_LINE0": "0 SWOT",
    "TLE_LINE1": "1 54754U 22173A   23089.49709470  .00000329  00000-0  18879-3 0  9992",
    "TLE_LINE2": "2 54754  77.6067 183.3130 0000968 215.5087 144.6005 14.09853265 14659",
    "OBJECT_ID": "2022-173A",
    "OBJECT_NUMBER": "54754",
    "SEMIMAJOR_AXIS": "7238.011",
    "PERIOD": "102.138",
    "APOGEE": "860.577",
    "PERIGEE": "859.175",
    "DECAYED": "0"
  },
  {
    "COMMENT": "GENERATED VIA SPACETRACK.ORG API",
    "ORIGINATOR": "18 SPCS",
    "NORAD_CAT_ID": "54754",
    "OBJECT_NAME": "SWOT",
    "OBJECT_TYPE": "PAYLOAD",
    "CLASSIFICATION_TYPE": "U",
    "INTLDES": "22173A",
    "EPOCH": "2023-03-30 17:02:22",
    "EPOCH_MICROSECONDS": "164000",
    "MEAN_MOTION": "14.09882568",
    "ECCENTRICITY": "0.0000548",
    "INCLINATION": "77.6069",
    "RA_OF_ASC_NODE": "183.023",
    "ARG_OF_PERICENTER": "215.0338",
    "MEAN_ANOMALY": "145.0783",
    "EPHEMERIS_TYPE": "0",
    "ELEMENT_SET_NO": "999",
    "REV_AT_EPOCH": "1468",
    "BSTAR": "0.00018907",
    "MEAN_MOTION_DOT": "0.0000033",
    "MEAN_MOTION_DDOT": "0",
    "FILE": "3875665",
    "TLE_LINE0": "0 SWOT",
    "TLE_LINE1": "1 54754U 22173A   23089.70997875  .00000330  00000-0  18907-3 0  9998",
    "TLE_LINE2": "2 54754  77.6069 183.0230 0000548 215.0338 145.0783 14.09882568 14686",
    "OBJECT_ID": "2022-173A",
    "OBJECT_NUMBER": "54754",
    "SEMIMAJOR_AXIS": "7237.911",
    "PERIOD": "102.136",
    "APOGEE": "860.172",
    "PERIGEE": "859.379",
    "DECAYED": "0"
  },
  {
    "COMMENT": "GENERATED VIA SPACETRACK.ORG API",
    "ORIGINATOR": "18 SPCS",
    "NORAD_CAT_ID": "54754",
    "OBJECT_NAME": "SWOT",
    "OBJECT_TYPE": "PAYLOAD",
    "CLASSIFICATION_TYPE": "U",
    "INTLDES": "22173A",
    "EPOCH": "2023-03-30 17:02:22",
    "EPOCH_MICROSECONDS": "164000",
    "MEAN_MOTION": "14.09882568",
    "ECCENTRICITY": "0.0000548",
    "INCLINATION": "77.6069",
    "RA_OF_ASC_NODE": "183.023",
    "ARG_OF_PERICENTER": "215.0338",
    "MEAN_ANOMALY": "145.0783",
    "EPHEMERIS_TYPE": "0",
    "ELEMENT_SET_NO": "999",
    "REV_AT_EPOCH": "1468",
    "BSTAR": "0.00018907",
    "MEAN_MOTION_DOT": "0.0000033",
    "MEAN_MOTION_DDOT": "0",
    "FILE": "3875726",
    "TLE_LINE0": "0 SWOT",
    "TLE_LINE1": "1 54754U 22173A   23089.70997875  .00000330  00000-0  18907-3 0  9998",
    "TLE_LINE2": "2 54754  77.6069 183.0230 0000548 215.0338 145.0783 14.09882568 14686",
    "OBJECT_ID": "2022-173A",
    "OBJECT_NUMBER": "54754",
    "SEMIMAJOR_AXIS": "7237.911",
    "PERIOD": "102.136",
    "APOGEE": "860.172",
    "PERIGEE": "859.379",
    "DECAYED": "0"
  },
  {
    "COMMENT": "GENERATED VIA SPACETRACK.ORG API",
    "ORIGINATOR": "18 SPCS",
    "NORAD_CAT_ID": "54754",
    "OBJECT_NAME": "SWOT",
    "OBJECT_TYPE": "PAYLOAD",
    "CLASSIFICATION_TYPE": "U",
    "INTLDES": "22173A",
    "EPOCH": "2023-03-31 04:57:40",
    "EPOCH_MICROSECONDS": "940640",
    "MEAN_MOTION": "14.09861019",
    "ECCENTRICITY": "0.0000223",
    "INCLINATION": "77.613",
    "RA_OF_ASC_NODE": "182.3438",
    "ARG_OF_PERICENTER": "231.9256",
    "MEAN_ANOMALY": "128.1881",
    "EPHEMERIS_TYPE": "0",
    "ELEMENT_SET_NO": "999",
    "REV_AT_EPOCH": "1475",
    "BSTAR": "0.00019251",
    "MEAN_MOTION_DOT": "0.00000336",
    "MEAN_MOTION_DDOT": "0",
    "FILE": "3875991",
    "TLE_LINE0": "0 SWOT",
    "TLE_LINE1": "1 54754U 22173A   23090.20672385  .00000336  00000-0  19251-3 0  9990",
    "TLE_LINE2": "2 54754  77.6130 182.3438 0000223 231.9256 128.1881 14.09861019 14750",
    "OBJECT_ID": "2022-173A",
    "OBJECT_NUMBER": "54754",
    "SEMIMAJOR_AXIS": "7237.984",
    "PERIOD": "102.138",
    "APOGEE": "860.011",
    "PERIGEE": "859.688",
    "DECAYED": "0"
  }
]